{
  "links" : {
    "next" : "https://api.nasa.gov/neo/rest/v1/feed?start_date=2014-09-09&end_date=2014-09-09&detailed=true&api_key=t0TVs3DtDT2H8Oy2Zy8m2eVrNsAVKAexjcZXUckd",
    "prev" : "https://api.nasa.gov/neo/rest/v1/feed?start_date=2014-09-07&end_date=2014-09-07&detailed=true&api_key=t0TVs3DtDT2H8Oy2Zy8m2eVrNsAVKAexjcZXUckd",
    "self" : "https://api.nasa.gov/neo/rest/v1/feed?start_date=2014-09-08&end_date=2014-09-08&detailed=true&api_key=t0TVs3DtDT2H8Oy2Zy8m2eVrNsAVKAexjcZXUckd"
  },
  "element_count" : 8,
  "near_earth_objects" : {
    "2014-09-08" : [ {
      "links" : {
        "self" : "https://api.nasa.gov/neo/rest/v1/neo/3684347?api_key=t0TVs3DtDT2H8Oy2Zy8m2eVrNsAVKAexjcZXUckd"
      },
      "neo_reference_id" : "3684347",
      "name" : "(2014 QP362)",
      "nasa_jpl_url" : "http://ssd.jpl.nasa.gov/sbdb.cgi?sstr=3684347",
      "absolute_magnitude_h" : 24.4,
      "estimated_diameter" : {
        "kilometers" : {
          "estimated_diameter_min" : 0.0350392641,
          "estimated_diameter_max" : 0.0783501764
        },
        "meters" : {
          "estimated_diameter_min" : 35.0392641108,
          "estimated_diameter_max" : 78.3501764334
        },
        "miles" : {
          "estimated_diameter_min" : 0.0217723826,
          "estimated_diameter_max" : 0.0486845275
        },
        "feet" : {
          "estimated_diameter_min" : 114.9582192654,
          "estimated_diameter_max" : 257.0543928497
        }
      },
      "is_potentially_hazardous_asteroid" : false,
      "close_approach_data" : [ {
        "close_approach_date" : "2014-09-08",
        "epoch_date_close_approach" : 1410159600000,
        "relative_velocity" : {
          "kilometers_per_second" : "4.0004309817",
          "kilometers_per_hour" : "14401.5515339525",
          "miles_per_hour" : "8948.5640628606"
        },
        "miss_distance" : {
          "astronomical" : "0.1646240778",
          "lunar" : "64.0387649536",
          "kilometers" : "24627412",
          "miles" : "15302764"
        },
        "orbiting_body" : "Earth"
      } ],
      "orbital_data" : {
        "orbit_id" : "3",
        "orbit_determination_date" : "2017-04-06 08:39:05",
        "orbit_uncertainty" : "8",
        "minimum_orbit_intersection" : ".154503",
        "jupiter_tisserand_invariant" : "4.323",
        "epoch_osculation" : "2456896.5",
        "eccentricity" : ".2747189440572693",
        "semi_major_axis" : "1.592577415302723",
        "inclination" : "7.080751122916851",
        "ascending_node_longitude" : "336.0893668012797",
        "orbital_period" : "734.0899117003123",
        "perihelion_distance" : "1.155066229441304",
        "perihelion_argument" : "22.06518223231202",
        "aphelion_distance" : "2.030088601164143",
        "perihelion_time" : "2456925.966849490080",
        "mean_anomaly" : "345.5493643934457",
        "mean_motion" : ".4904031430784296",
        "equinox" : "J2000"
      }
    }, {
      "links" : {
        "self" : "https://api.nasa.gov/neo/rest/v1/neo/3014110?api_key=t0TVs3DtDT2H8Oy2Zy8m2eVrNsAVKAexjcZXUckd"
      },
      "neo_reference_id" : "3014110",
      "name" : "(1998 SU4)",
      "nasa_jpl_url" : "http://ssd.jpl.nasa.gov/sbdb.cgi?sstr=3014110",
      "absolute_magnitude_h" : 21.3,
      "estimated_diameter" : {
        "kilometers" : {
          "estimated_diameter_min" : 0.1460679643,
          "estimated_diameter_max" : 0.3266178974
        },
        "meters" : {
          "estimated_diameter_min" : 146.0679642714,
          "estimated_diameter_max" : 326.6178974458
        },
        "miles" : {
          "estimated_diameter_min" : 0.090762397,
          "estimated_diameter_max" : 0.2029508896
        },
        "feet" : {
          "estimated_diameter_min" : 479.2256199,
          "estimated_diameter_max" : 1071.581062656
        }
      },
      "is_potentially_hazardous_asteroid" : true,
      "close_approach_data" : [ {
        "close_approach_date" : "2014-09-08",
        "epoch_date_close_approach" : 1410159600000,
        "relative_velocity" : {
          "kilometers_per_second" : "20.0437974815",
          "kilometers_per_hour" : "72157.670933539",
          "miles_per_hour" : "44835.9705864537"
        },
        "miss_distance" : {
          "astronomical" : "0.0703304295",
          "lunar" : "27.3585357666",
          "kilometers" : "10521282",
          "miles" : "6537621.5"
        },
        "orbiting_body" : "Earth"
      } ],
      "orbital_data" : {
        "orbit_id" : "26",
        "orbit_determination_date" : "2017-04-06 09:17:43",
        "orbit_uncertainty" : "0",
        "minimum_orbit_intersection" : ".0203437",
        "jupiter_tisserand_invariant" : "5.236",
        "epoch_osculation" : "2458000.5",
        "eccentricity" : ".5804470592856671",
        "semi_major_axis" : "1.148003078928492",
        "inclination" : "23.15410035710394",
        "ascending_node_longitude" : "350.6292987152933",
        "orbital_period" : "449.2757792472263",
        "perihelion_distance" : ".4816480677135573",
        "perihelion_argument" : "241.797806489819",
        "aphelion_distance" : "1.814358090143427",
        "perihelion_time" : "2458198.022786420355",
        "mean_anomaly" : "201.7270496298032",
        "mean_motion" : ".8012895789824008",
        "equinox" : "J2000"
      }
    }, {
      "links" : {
        "self" : "https://api.nasa.gov/neo/rest/v1/neo/3289739?api_key=t0TVs3DtDT2H8Oy2Zy8m2eVrNsAVKAexjcZXUckd"
      },
      "neo_reference_id" : "3289739",
      "name" : "(2005 RB3)",
      "nasa_jpl_url" : "http://ssd.jpl.nasa.gov/sbdb.cgi?sstr=3289739",
      "absolute_magnitude_h" : 22.6,
      "estimated_diameter" : {
        "kilometers" : {
          "estimated_diameter_min" : 0.0802703167,
          "estimated_diameter_max" : 0.1794898848
        },
        "meters" : {
          "estimated_diameter_min" : 80.2703167283,
          "estimated_diameter_max" : 179.4898847799
        },
        "miles" : {
          "estimated_diameter_min" : 0.049877647,
          "estimated_diameter_max" : 0.1115298092
        },
        "feet" : {
          "estimated_diameter_min" : 263.3540659348,
          "estimated_diameter_max" : 588.8775935812
        }
      },
      "is_potentially_hazardous_asteroid" : false,
      "close_approach_data" : [ {
        "close_approach_date" : "2014-09-08",
        "epoch_date_close_approach" : 1410159600000,
        "relative_velocity" : {
          "kilometers_per_second" : "17.4631677047",
          "kilometers_per_hour" : "62867.4037368131",
          "miles_per_hour" : "39063.359838577"
        },
        "miss_distance" : {
          "astronomical" : "0.2719630311",
          "lunar" : "105.7936172485",
          "kilometers" : "40685092",
          "miles" : "25280544"
        },
        "orbiting_body" : "Earth"
      } ],
      "orbital_data" : {
        "orbit_id" : "10",
        "orbit_determination_date" : "2017-04-06 09:10:34",
        "orbit_uncertainty" : "8",
        "minimum_orbit_intersection" : ".0484072",
        "jupiter_tisserand_invariant" : "6.537",
        "epoch_osculation" : "2453619.5",
        "eccentricity" : ".3939294321551896",
        "semi_major_axis" : ".8778519796309174",
        "inclination" : "36.16520581727023",
        "ascending_node_longitude" : "165.8835534544424",
        "orbital_period" : "300.4210544615703",
        "perihelion_distance" : ".532040247778601",
        "perihelion_argument" : "320.3230911741254",
        "aphelion_distance" : "1.223663711483234",
        "perihelion_time" : "2453708.815751350747",
        "mean_anomaly" : "252.9713147305992",
        "mean_motion" : "1.1983181426655",
        "equinox" : "J2000"
      }
    } ]
  }
}